{
  "type": "FeatureCollection",
  "features": [
    {
      "type": "Feature",
      "properties": {
        "norad_id": 26766,
        "name": "INTELSAT 10 (IS-10)",
        "group": "intelsat",
        "lat": 5.556036332982305,
        "lon": 100.54510860328588,
        "alt_km": 36159.18452479179,
        "timestamp": "2025-12-27T19:21:58.441706+00:00",
        "meta_object_name": "INTELSAT 10 (IS-10)",
        "meta_object_id": "2001-019A",
        "meta_epoch": "2025-12-27T04:51:38.509056",
        "meta_mean_motion": 0.9907171,
        "meta_eccentricity": 0.0008098,
        "meta_inclination": 8.662,
        "meta_ra_of_asc_node": 61.0096,
        "meta_arg_of_pericenter": 230.2441,
        "meta_mean_anomaly": 314.0374,
        "meta_ephemeris_type": 0,
        "meta_classification_type": "U",
        "meta_norad_cat_id": 26766,
        "meta_element_set_no": 999,
        "meta_rev_at_epoch": 4387,
        "meta_bstar": 0,
        "meta_mean_motion_dot": 6.5e-07,
        "meta_mean_motion_ddot": 0,
        "tle_line1": "1 26766U 01019A   25361.20252904  .00000065  00000+0  00000+0 0  9998",
        "tle_line2": "2 26766   8.6620  61.0096 0008098 230.2441 314.0374  0.99071710 43872"
      },
      "geometry": {
        "type": "Point",
        "coordinates": [
          100.54510860328588,
          5.556036332982305
        ]
      }
    },
    {
      "type": "Feature",
      "properties": {
        "norad_id": 26900,
        "name": "INTELSAT 902 (IS-902)",
        "group": "intelsat",
        "lat": -5.652865897825495,
        "lon": -23.2078671890231,
        "alt_km": 35782.78714400061,
        "timestamp": "2025-12-27T19:21:58.441729+00:00",
        "meta_object_name": "INTELSAT 902 (IS-902)",
        "meta_object_id": "2001-039A",
        "meta_epoch": "2025-12-15T13:09:02.081664",
        "meta_mean_motion": 1.0027087,
        "meta_eccentricity": 0.00045028,
        "meta_inclination": 5.6536,
        "meta_ra_of_asc_node": 74.0372,
        "meta_arg_of_pericenter": 189.6359,
        "meta_mean_anomaly": 327.9329,
        "meta_ephemeris_type": 0,
        "meta_classification_type": "U",
        "meta_norad_cat_id": 26900,
        "meta_element_set_no": 999,
        "meta_rev_at_epoch": 8885,
        "meta_bstar": 0,
        "meta_mean_motion_dot": -2.65e-06,
        "meta_mean_motion_ddot": 0,
        "tle_line1": "1 26900U 01039A   25349.54794076 -.00000265  00000+0  00000+0 0  9997",
        "tle_line2": "2 26900   5.6536  74.0372 0004502 189.6359 327.9329  1.00270870 88858"
      },
      "geometry": {
        "type": "Point",
        "coordinates": [
          -23.2078671890231,
          -5.652865897825495
        ]
      }
    },
    {
      "type": "Feature",
      "properties": {
        "norad_id": 27380,
        "name": "INTELSAT 904 (IS-904)",
        "group": "intelsat",
        "lat": -6.296013381582224,
        "lon": -4.350192308859018,
        "alt_km": 35779.53307028532,
        "timestamp": "2025-12-27T19:21:58.441743+00:00",
        "meta_object_name": "INTELSAT 904 (IS-904)",
        "meta_object_id": "2002-007A",
        "meta_epoch": "2025-12-27T11:08:23.517312",
        "meta_mean_motion": 1.00272058,
        "meta_eccentricity": 0.0002163,
        "meta_inclination": 6.4895,
        "meta_ra_of_asc_node": 71.2606,
        "meta_arg_of_pericenter": 247.9862,
        "meta_mean_anomaly": 272.5687,
        "meta_ephemeris_type": 0,
        "meta_classification_type": "U",
        "meta_norad_cat_id": 27380,
        "meta_element_set_no": 999,
        "meta_rev_at_epoch": 5004,
        "meta_bstar": 0,
        "meta_mean_motion_dot": -2.06e-06,
        "meta_mean_motion_ddot": 0,
        "tle_line1": "1 27380U 02007A   25361.46416108 -.00000206  00000+0  00000+0 0  9993",
        "tle_line2": "2 27380   6.4895  71.2606 0002163 247.9862 272.5687  1.00272058 50047"
      },
      "geometry": {
        "type": "Point",
        "coordinates": [
          -4.350192308859018,
          -6.296013381582224
        ]
      }
    },
    {
      "type": "Feature",
      "properties": {
        "norad_id": 27426,
        "name": "DIRECTV 5 (TEMPO 1)",
        "group": "intelsat",
        "lat": -1.4926426951462968,
        "lon": -83.15705930385799,
        "alt_km": 35771.738342313634,
        "timestamp": "2025-12-27T19:21:58.441755+00:00",
        "meta_object_name": "DIRECTV 5 (TEMPO 1)",
        "meta_object_id": "2002-023A",
        "meta_epoch": "2025-12-27T09:38:01.017024",
        "meta_mean_motion": 1.00271385,
        "meta_eccentricity": 0.0003496,
        "meta_inclination": 4.4376,
        "meta_ra_of_asc_node": 77.4783,
        "meta_arg_of_pericenter": 207.4741,
        "meta_mean_anomaly": 205.5645,
        "meta_ephemeris_type": 0,
        "meta_classification_type": "U",
        "meta_norad_cat_id": 27426,
        "meta_element_set_no": 999,
        "meta_rev_at_epoch": 8640,
        "meta_bstar": 0,
        "meta_mean_motion_dot": -3.6e-07,
        "meta_mean_motion_ddot": 0,
        "tle_line1": "1 27426U 02023A   25361.40140066 -.00000036  00000+0  00000+0 0  9994",
        "tle_line2": "2 27426   4.4376  77.4783 0003496 207.4741 205.5645  1.00271385 86402"
      },
      "geometry": {
        "type": "Point",
        "coordinates": [
          -83.15705930385799,
          -1.4926426951462968
        ]
      }
    },
    {
      "type": "Feature",
      "properties": {
        "norad_id": 27438,
        "name": "INTELSAT 905 (IS-905)",
        "group": "intelsat",
        "lat": 0.21033452878042144,
        "lon": -110.13717592253204,
        "alt_km": 35774.9736140073,
        "timestamp": "2025-12-27T19:21:58.441786+00:00",
        "meta_object_name": "INTELSAT 905 (IS-905)",
        "meta_object_id": "2002-027A",
        "meta_epoch": "2025-12-23T05:41:27.377952",
        "meta_mean_motion": 1.00273243,
        "meta_eccentricity": 0.00027491,
        "meta_inclination": 6.3102,
        "meta_ra_of_asc_node": 71.9349,
        "meta_arg_of_pericenter": 206.5226,
        "meta_mean_anomaly": 121.7385,
        "meta_ephemeris_type": 0,
        "meta_classification_type": "U",
        "meta_norad_cat_id": 27438,
        "meta_element_set_no": 999,
        "meta_rev_at_epoch": 4959,
        "meta_bstar": 0,
        "meta_mean_motion_dot": 1.12e-06,
        "meta_mean_motion_ddot": 0,
        "tle_line1": "1 27438U 02027A   25357.23712243  .00000112  00000+0  00000+0 0  9993",
        "tle_line2": "2 27438   6.3102  71.9349 0002749 206.5226 121.7385  1.00273243 49592"
      },
      "geometry": {
        "type": "Point",
        "coordinates": [
          -110.13717592253204,
          0.21033452878042144
        ]
      }
    },
    {
      "type": "Feature",
      "properties": {
        "norad_id": 27445,
        "name": "GALAXY 3C (G-3C)",
        "group": "intelsat",
        "lat": -1.7575846094350214,
        "lon": -67.86765368293273,
        "alt_km": 35788.65993703631,
        "timestamp": "2025-12-27T19:21:58.441807+00:00",
        "meta_object_name": "GALAXY 3C (G-3C)",
        "meta_object_id": "2002-030A",
        "meta_epoch": "2025-12-27T08:56:25.872288",
        "meta_mean_motion": 1.00271205,
        "meta_eccentricity": 0.0001005,
        "meta_inclination": 3.2981,
        "meta_ra_of_asc_node": 80.349,
        "meta_arg_of_pericenter": 91.0698,
        "meta_mean_anomaly": 323.9371,
        "meta_ephemeris_type": 0,
        "meta_classification_type": "U",
        "meta_norad_cat_id": 27445,
        "meta_element_set_no": 999,
        "meta_rev_at_epoch": 4477,
        "meta_bstar": 0,
        "meta_mean_motion_dot": -1.31e-06,
        "meta_mean_motion_ddot": 0,
        "tle_line1": "1 27445U 02030A   25361.37252167 -.00000131  00000+0  00000+0 0  9991",
        "tle_line2": "2 27445   3.2981  80.3490 0001005  91.0698 323.9371  1.00271205 44778"
      },
      "geometry": {
        "type": "Point",
        "coordinates": [
          -67.86765368293273,
          -1.7575846094350214
        ]
      }
    },
    {
      "type": "Feature",
      "properties": {
        "norad_id": 27513,
        "name": "INTELSAT 906 (IS-906)",
        "group": "intelsat",
        "lat": 1.5038824385980307,
        "lon": 91.08796166996945,
        "alt_km": 35811.815502969475,
        "timestamp": "2025-12-27T19:21:58.441821+00:00",
        "meta_object_name": "INTELSAT 906 (IS-906)",
        "meta_object_id": "2002-041A",
        "meta_epoch": "2025-12-27T04:44:52.745280",
        "meta_mean_motion": 1.00271138,
        "meta_eccentricity": 0.0006141,
        "meta_inclination": 5.3666,
        "meta_ra_of_asc_node": 75.0601,
        "meta_arg_of_pericenter": 203.6338,
        "meta_mean_anomaly": 312.5849,
        "meta_ephemeris_type": 0,
        "meta_classification_type": "U",
        "meta_norad_cat_id": 27513,
        "meta_element_set_no": 999,
        "meta_rev_at_epoch": 8530,
        "meta_bstar": 0,
        "meta_mean_motion_dot": 3.3e-07,
        "meta_mean_motion_ddot": 0,
        "tle_line1": "1 27513U 02041A   25361.19783270  .00000033  00000+0  00000+0 0  9993",
        "tle_line2": "2 27513   5.3666  75.0601 0006141 203.6338 312.5849  1.00271138 85303"
      },
      "geometry": {
        "type": "Point",
        "coordinates": [
          91.08796166996945,
          1.5038824385980307
        ]
      }
    }
  ]
}